{
  "type": "FeatureCollection",
  "features": [
    {
      "type": "Feature",
      "geometry": {
        "type": "Point",
        "coordinates": [
          78.69244514476894,
          26.347512251945368
        ]
      },
      "properties": {
        "cluster_id": 0,
        "num_cells": 44478,
        "mean_hcho": 0.0002405064005870372,
        "max_hcho": 0.0005791530129499733,
        "source_region": "IGP (Crop Burning)",
        "color": "#6D28D9",
        "radius": 63.269423894958926
      }
    }
  ]
}